[{"OBJECT_NAME":"SHIYAN-24C 03","OBJECT_ID":"2023-206C","EPOCH":"2026-03-09T21:23:43.281888","MEAN_MOTION":14.97896938,"ECCENTRICITY":0.0002411,"INCLINATION":97.3969,"RA_OF_ASC_NODE":41.7507,"ARG_OF_PERICENTER":66.6237,"MEAN_ANOMALY":293.524,"EPHEMERIS_TYPE":0,"CLASSIFICATION_TYPE":"U","NORAD_CAT_ID":58652,"ELEMENT_SET_NO":999,"REV_AT_EPOCH":12043,"BSTAR":0.00011928,"MEAN_MOTION_DOT":1.35e-5,"MEAN_MOTION_DDOT":0},{"OBJECT_NAME":"STARLINK-35882","OBJECT_ID":"2025-298P","EPOCH":"2026-03-09T23:03:56.894688","MEAN_MOTION":14.98333879,"ECCENTRICITY":0.00031237,"INCLINATION":70.0009,"RA_OF_ASC_NODE":13.9447,"ARG_OF_PERICENTER":267.6345,"MEAN_ANOMALY":92.4456,"EPHEMERIS_TYPE":0,"CLASSIFICATION_TYPE":"U","NORAD_CAT_ID":67088,"ELEMENT_SET_NO":999,"REV_AT_EPOCH":1325,"BSTAR":0.00038624449,"MEAN_MOTION_DOT":4.519e-5,"MEAN_MOTION_DDOT":0}]
